IRIDIUM 63              
1 25286U 98021B   26021.46431751  .00000762  00000+0  25165-3 0  9991
2 25286  86.4006 350.5435 0001991  84.3695 275.7730 14.36775438455181
IRIDIUM 69              
1 25319U 98026A   26021.42833104  .00000700  00000+0  21074-3 0  9994
2 25319  86.3986   3.1554 0003917  53.7731 306.3830 14.41256515454499
IRIDIUM 71              
1 25320U 98026B   26021.48190087  .00000794  00000+0  23941-3 0  9996
2 25320  86.3991 357.8037 0004300  87.5363 272.6329 14.41350112455032
IRIDIUM 73              
1 25344U 98032C   26021.26645923  .00001238  00000+0  30138-3 0  9999
2 25344  86.4440 314.1953 0002152  66.8955 293.2478 14.52055488462202
IRIDIUM 82              
1 25467U 98051A   26021.45556745  .00057280  00000+0  92888-3 0  9998
2 25467  86.3605   1.0486 0057163 173.7788 186.4195 15.50645147457543
